BEIDOU 3 (C01)          
1 36287U 10001A   22176.92819896 -.00000275  00000+0  00000+0 0  9991
2 36287   1.8974  48.3712 0003979  28.8425 311.3735  1.00274061 45596
BEIDOU 5 (C06)          
1 36828U 10036A   22177.43591081 -.00000039  00000+0  00000+0 0  9998
2 36828  54.1957 176.1437 0031032 190.6000 169.6038  1.00296396 43673
BEIDOU 6 (C04)          
1 37210U 10057A   22176.86035272 -.00000106  00000+0  00000+0 0  9993
2 37210   0.8654  48.2714 0003592 124.5229 210.9039  1.00270777 42728
BEIDOU 7 (C07)          
1 37256U 10068A   22176.17025810 -.00000217  00000+0  00000+0 0  9999
2 37256  50.1984 289.5579 0021790 185.3667 323.9852  1.00247459 42226
BEIDOU 8 (C08)          
1 37384U 11013A   22176.61299677 -.00000201  00000+0  00000+0 0  9998
2 37384  60.3005  54.1788 0018080 184.0597   1.5676  1.00254184 41101
BEIDOU 9 (C09)          
1 37763U 11038A   22177.46715892  .00000002  00000+0  00000+0 0  9990
2 37763  54.4774 178.6376 0098525 228.2101 131.4555  1.00277428 40090
BEIDOU 10 (C10)         
1 37948U 11073A   22176.77965944 -.00000172  00000+0  00000+0 0  9991
2 37948  50.3132 289.1887 0083743 217.7597 141.3170  1.00292008 38834
BEIDOU 11 (C05)         
1 38091U 12008A   22176.92549481  .00000063  00000+0  00000+0 0  9999
2 38091   1.5815  67.6476 0014745 340.0542 258.1815  1.00274060 37918
BEIDOU 12 (C11)         
1 38250U 12018A   22176.79226909 -.00000103  00000+0  00000+0 0  9995
2 38250  56.6958 353.2847 0020199 252.5394 148.9069  1.86234304 69241
BEIDOU 13 (C12)         
1 38251U 12018B   22176.39632674 -.00000103  00000+0  00000+0 0  9992
2 38251  56.6101 352.6206 0010964 254.7727 285.4259  1.86234098 69234
BEIDOU 15 (C14)         
1 38775U 12050B   22176.62881211 -.00000050  00000+0  00000+0 0  9999
2 38775  55.4052 111.4095 0015180 323.8667 208.4399  1.86231310 66613
BEIDOU 16 (C02)         
1 38953U 12059A   22177.49104519 -.00000170  00000+0  00000+0 0  9994
2 38953   2.0117  84.3632 0011207 302.6960 148.3694  1.00272115 35499
BEIDOU 17 (C31)         
1 40549U 15019A   22177.15354160 -.00000189  00000+0  00000+0 0  9999
2 40549  51.8733 312.6532 0036379 193.1012 276.3592  1.00295072 26523
BEIDOU 18 (C57)         
1 40748U 15037A   22176.73967075 -.00000105  00000+0  00000+0 0  9996
2 40748  55.8634 351.4714 0004818  46.1351 273.6682  1.86233303 47062
BEIDOU 19 (C58)         
1 40749U 15037B   22175.84516337 -.00000104  00000+0  00000+0 0  9998
2 40749  55.8642 351.4909 0003870   1.0578 213.5121  1.86232162 47047
BEIDOU 20 (C18)         
1 40938U 15053A   22176.75049659 -.00000148  00000+0  00000+0 0  9993
2 40938  51.4857 275.7795 0045405 196.4922 166.2313  1.00291185 24789
BEIDOU IGSO-6 (C13)     
1 41434U 16021A   22177.42161581 -.00000178  00000+0  00000+0 0  9998
2 41434  58.1116  52.7427 0043431 217.6545 251.8765  1.00281281 22924
BEIDOU-2 G7 (C03)       
1 41586U 16037A   22176.74146797 -.00000348  00000+0  00000+0 0  9998
2 41586   1.9978  69.9213 0008369   8.8354 212.4254  1.00265209 22216
BEIDOU-3 M1 (C19)       
1 43001U 17069A   22177.30570946 -.00000051  00000+0  00000+0 0  9999
2 43001  55.5578 111.3887 0011623 295.4455 126.9640  1.86231691 31561
BEIDOU-3 M2 (C20)       
1 43002U 17069B   22177.33804557 -.00000051  00000+0  00000+0 0  9991
2 43002  55.5579 111.4231 0010111 314.1043 173.0077  1.86231375 31555
BEIDOU-3 M3 (C27)       
1 43107U 18003A   22176.85946346 -.00000106  00000+0  00000+0 0  9996
2 43107  55.3147 352.3791 0005752  62.6647 269.7082  1.86232319 30307
BEIDOU-3 M4 (C28)       
1 43108U 18003B   22176.74164645 -.00000106  00000+0  00000+0 0  9999
2 43108  55.3054 352.3734 0001640 251.3981  45.8362  1.86230929 30301
BEIDOU-3 M5 (C21)       
1 43207U 18018A   22176.20638246 -.00000047  00000+0  00000+0 0  9993
2 43207  55.5163 111.5397 0007272 334.4730  25.4518  1.86231517 29686
BEIDOU-3 M6 (C22)       
1 43208U 18018B   22176.27302096 -.00000047  00000+0  00000+0 0  9992
2 43208  55.5167 111.5417 0009472 305.8632  54.0088  1.86231457 29684
BEIDOU-3 M7 (C29)       
1 43245U 18029A   22177.31365868 -.00000107  00000+0  00000+0 0  9994
2 43245  55.2271 350.1324 0001258  86.3203 100.9960  1.86232479 28858
BEIDOU-3 M8 (C30)       
1 43246U 18029B   22177.28331892 -.00000107  00000+0  10000-3 0  9996
2 43246  55.2236 350.1639 0004358  15.1538 198.3653  1.86232892 28842
BEIDOU IGSO-7 (C16)     
1 43539U 18057A   22176.92209368 -.00000041  00000+0  00000+0 0  9996
2 43539  55.0773 175.6260 0049647 227.8410 312.1915  1.00255640 14598
BEIDOU-3 M9 (C23)       
1 43581U 18062A   22176.74367307  .00000056  00000+0  00000+0 0  9992
2 43581  54.2736 231.8015 0004988 266.2190 156.5324  1.86231875 26583
BEIDOU-3 M10 (C24)      
1 43582U 18062B   22176.60079472  .00000054  00000+0  00000+0 0  9999
2 43582  54.2721 231.7967 0004151 348.6558  70.0792  1.86232094 26581
BEIDOU-3 M11 (C25)      
1 43602U 18067A   22176.52828090  .00000057  00000+0  00000+0 0  9999
2 43602  54.3554 230.4136 0006495   3.2880  48.2437  1.86231681 26076
BEIDOU-3 M12 (C26)      
1 43603U 18067B   22176.61377503  .00000058  00000+0  00000+0 0  9999
2 43603  54.3522 230.3766 0003828 347.2124  32.0145  1.86231665 26090
BEIDOU-3 M13 (C32)      
1 43622U 18072A   22177.28643987 -.00000052  00000+0  00000+0 0  9997
2 43622  55.4848 111.0576 0008323 293.4734 205.9971  1.86231800 25618
BEIDOU-3 M14 (C33)      
1 43623U 18072B   22176.60686648 -.00000050  00000+0  00000+0 0  9992
2 43623  55.4864 111.0721 0006380 312.9021 181.1821  1.86231793 25605
BEIDOU-3 M15 (C34)      
1 43647U 18078A   22176.57686545 -.00000107  00000+0  10000-3 0  9994
2 43647  55.1220 350.3159 0006717  15.6662 353.8544  1.86232653 25111
BEIDOU-3 M16 (C35)      
1 43648U 18078B   22176.79839176 -.00000107  00000+0  00000+0 0  9994
2 43648  55.1178 350.3154 0004915  29.4872  36.3346  1.86232203 25139
BEIDOU-3 G1 (C59)       
1 43683U 18085A   22177.50216469 -.00000271  00000+0  00000+0 0  9997
2 43683   0.8985 164.3321 0003597 344.8463  86.1965  1.00268028 13491
BEIDOU-3 M17 (C36)      
1 43706U 18093A   22177.38851457  .00000060  00000+0  00000+0 0  9995
2 43706  54.3546 231.6646 0010676 270.5949  89.3738  1.86232119 24482
BEIDOU-3 M18 (C37)      
1 43707U 18093B   22177.28229507  .00000060  00000+0  00000+0 0  9990
2 43707  54.3550 231.6593 0008400 294.7919  85.1841  1.86232216 24494
BEIDOU-3 IGSO-1 (C38)   
1 44204U 19023A   22177.47435325 -.00000235  00000+0  00000+0 0  9990
2 44204  56.5705  52.8724 0019239 197.8382 311.3686  1.00254875 11804
BEIDOU-2 G8             
1 44231U 19027A   22176.92907115 -.00000241  00000+0  00000+0 0  9991
2 44231   0.8819  76.4568 0004573 107.4630 209.1282  1.00271410 11516
BEIDOU-3 IGSO-2 (C39)   
1 44337U 19035A   22176.60215005 -.00000053  00000+0  00000+0 0  9993
2 44337  55.1204 171.6478 0023463 199.8292 234.9555  1.00250016 11136
BEIDOU-3 M23 (C45)      
1 44542U 19061A   22177.32443871  .00000060  00000+0  00000+0 0  9991
2 44542  54.5811 231.8107 0007937 325.9332  34.1067  1.86231367 18759
BEIDOU-3 M24 (C46)      
1 44543U 19061B   22177.41960731  .00000061  00000+0  00000+0 0  9992
2 44543  54.5795 231.7767 0005349 311.7970  23.3691  1.86231659 18744
BEIDOU-3 IGSO-3         
1 44709U 19073A   22177.24146516 -.00000217  00000+0  10000-3 0  9996
2 44709  57.2528 296.2939 0023129 175.2947   6.4247  1.00253867  9887
BEIDOU-3 M21            
1 44793U 19078A   22175.30164661 -.00000106  00000+0  10000-3 0  9997
2 44793  54.9712 350.3811 0006822  21.4090 167.0176  1.86232251 17570
BEIDOU-3 M22            
1 44794U 19078B   22177.26031977 -.00000108  00000+0  00000+0 0  9995
2 44794  54.9448 350.3043 0004738  22.2906 311.0192  1.86232753 17603
BEIDOU-3 M19            
1 44864U 19090A   22177.26546663 -.00000052  00000+0  00000+0 0  9998
2 44864  55.4192 111.2691 0018088 274.1163 257.0950  1.86231872 17198
BEIDOU-3 M20            
1 44865U 19090B   22176.53487697 -.00000049  00000+0  00000+0 0  9995
2 44865  55.4216 111.3247 0016586 287.3117 203.9397  1.86231822 17156
BEIDOU-3 G2             
1 45344U 20017A   22176.84447900 -.00000135  00000+0  00000+0 0  9992
2 45344   2.0601 352.4914 0004627 117.5457 187.9986  1.00272677  8691
BEIDOU-3 G3             
1 45807U 20040A   22176.85058428 -.00000345  00000+0  00000+0 0  9999
2 45807   1.4215 303.4608 0006346 328.6982  58.5761  1.00269705  7515
